[{"streetAddress":"20 Cardinal Hayes Place","city":"New York","state":"NY","zoneNumber":1,"zipCode":"10007","meetingName":"A DESIGN FOR LIVING - "},{"streetAddress":"20 Cardinal Hayes Place","city":"New York","state":"NY","zoneNumber":1,"zipCode":"10007","meetingName":"CHAMBERS STREET - A BRIDGE BACK - Chambers Street - A Bridge Back"},{"streetAddress":"29 Mott Street","city":"New York","state":"NY","zoneNumber":1,"zipCode":"10013","meetingName":"CHINATOWN - Chinatown"},{"streetAddress":"49 Fulton Street","city":"New York","state":"NY","zoneNumber":1,"zipCode":"10038","meetingName":"DOWNTOWN - "},{"streetAddress":"44 John Street","city":"New York","state":"NY","zoneNumber":1,"zipCode":"10038","meetingName":"EXCHANGE VIEWS @ JOHN STREET CHURCH - "},{"streetAddress":"49 Fulton Street","city":"New York","state":"NY","zoneNumber":1,"zipCode":"10038","meetingName":"EXCHANGE VIEWS @ ST. MARGARET&apos;S HOUSE - "},{"streetAddress":"20 Cardinal Hayes Place","city":"New York","state":"NY","zoneNumber":1,"zipCode":"10007","meetingName":"FRIDAY DOWNTOWN - Friday Downtown"},{"streetAddress":"22 Barclay Street","city":"New York","state":"NY","zoneNumber":1,"zipCode":"NY","meetingName":"GATEWAY - Gateway"},{"streetAddress":"20 Cardinal Hayes Place","city":"New York","state":"NY","zoneNumber":1,"zipCode":"10007","meetingName":"PASSING THE BAR - Passing The Bar"},{"streetAddress":"22 Barclay Street (Basement)","city":"New York","state":"NY","zoneNumber":1,"zipCode":"10007","meetingName":"S.O.B.E.R. - "},{"streetAddress":"283 West Broadway","city":"New York","state":"NY","zoneNumber":1,"zipCode":"10013","meetingName":"SANE AND SOBER - "},{"streetAddress":"125 Barclay Street","city":"New York","state":"NY","zoneNumber":1,"zipCode":"10007","meetingName":"SATURDAY AFTERNOON DISCUSSION - Saturday Afternoon Discussion"},{"streetAddress":"49 Fulton Street","city":"New York","state":"NY","zoneNumber":1,"zipCode":"10038","meetingName":"SEAMEN&apos;S GROUP - "},{"streetAddress":"49 Fulton Street","city":"New York","state":"NY","zoneNumber":1,"zipCode":"10038","meetingName":"SEAPORT - Seaport"},{"streetAddress":"20 Cardinal Hayes Place","city":"New York","state":"NY","zoneNumber":1,"zipCode":"","meetingName":"TOWER - "},{"streetAddress":"283 West Broadway","city":"New York","state":"NY","zoneNumber":1,"zipCode":"10013","meetingName":"TRIANGLE GROUP - "},{"streetAddress":"49 Fulton Street","city":"New York","state":"NY","zoneNumber":1,"zipCode":"10038","meetingName":"TRIBECA GROUP @ ST. MARGARET&apos;S HOUSE - "},{"streetAddress":"22 Barclay Street- basement chapel","city":"New York","state":"NY","zoneNumber":1,"zipCode":"10006","meetingName":"TRIBECA GROUP @ ST. PETER&apos;S CHURCH - Tribeca"},{"streetAddress":"20 Cardinal Hayes Place","city":"New York","state":"NY","zoneNumber":1,"zipCode":"10007","meetingName":"WOMEN&apos;S DOWNTOWN AA STEP MEETING - "},{"streetAddress":"283 West Broadway","city":"New York","state":"NY","zoneNumber":1,"zipCode":"","meetingName":"YOUNG PEOPLE&apos;S DIVERSITY - "},{"streetAddress":"283 West Broadway","city":"New York","state":"NY","zoneNumber":1,"zipCode":"10013","meetingName":"YOUNG PEOPLE&apos;S STEP - "},{"streetAddress":"283 W. Broadway","city":"New York","state":"NY","zoneNumber":1,"zipCode":"10013","meetingName":"YOUTH ENJOYING SOBRIETY (Y.E.S.) - Youth Enjoying Sobriety (Yes)"},{"streetAddress":"273 Bowery","city":"New York","state":"NY","zoneNumber":2,"zipCode":"10002","meetingName":"A.A. ON THE BOWERY - AA On The Bowery"},{"streetAddress":"232 West 11th Street","city":"New York","state":"NY","zoneNumber":2,"zipCode":"10014","meetingName":"AFTER FIVE - After Five"},{"streetAddress":"283 West Broadway","city":"New York","state":"NY","zoneNumber":2,"zipCode":"10013","meetingName":"AFTERNOON DELIGHT - "},{"streetAddress":"232 W. 11th Street","city":"New York","state":"NY","zoneNumber":2,"zipCode":"10014","meetingName":"ARTISTS IN RECOVERY (A.R.T.) - "},{"streetAddress":"220 West Houston Street","city":"New York","state":"NY","zoneNumber":2,"zipCode":"10014","meetingName":"BAGELS AND BIG BOOK - "},{"streetAddress":"253 Center Street","city":"New York","state":"NY","zoneNumber":2,"zipCode":"10013","meetingName":"CENTER MEETING - "},{"streetAddress":"273 Bowery","city":"New York","state":"NY","zoneNumber":2,"zipCode":"10002","meetingName":"EAST VILLAGE SOBER AGNOSTICS - Sober Agnostics"},{"streetAddress":"487 Hudson Street","city":"New York","state":"NY","zoneNumber":2,"zipCode":"10014","meetingName":"GREENWICH VILLAGE - Greenwich Village"},{"streetAddress":"292 Henry Street","city":"New York","state":"NY","zoneNumber":2,"zipCode":"10002","meetingName":"GRUPO CENTRAL - Grupo Central"},{"streetAddress":"232 West 11th Street","city":"New York","state":"NY","zoneNumber":2,"zipCode":"10014","meetingName":"HAPPY, JOYOUS AND FREE - "},{"streetAddress":"141 Henry Street","city":"New York","state":"NY","zoneNumber":2,"zipCode":"10002","meetingName":"LOWER EAST SIDE - "},{"streetAddress":"220 West Houston Street","city":"New York","state":"NY","zoneNumber":2,"zipCode":"10014","meetingName":"MIDNITE - "},{"streetAddress":"83 Christopher Street (Red Door","city":"New York","state":"NY","zoneNumber":2,"zipCode":"10014","meetingName":"NEW GROUP - New Group"},{"streetAddress":"50 Perry Street","city":"New York","state":"NY","zoneNumber":2,"zipCode":"10014","meetingName":"PERRY STREET WORKSHOP - Perry Street Workshop     (:I)"},{"streetAddress":"232 West 11th Street","city":"New York","state":"NY","zoneNumber":2,"zipCode":"10014","meetingName":"PRIMETIME NYC (I) - "},{"streetAddress":"224 Waverly Place","city":"New York","state":"NY","zoneNumber":2,"zipCode":"10014","meetingName":"RED DOOR - Red Door"},{"streetAddress":"154 Sullivan Street","city":"New York","state":"NY","zoneNumber":2,"zipCode":"10012","meetingName":"ROOM FOR IMPROVEMENT     (:I) - Room For Improvement"},{"streetAddress":"273 Bowery Street","city":"New York","state":"NY","zoneNumber":2,"zipCode":"","meetingName":"ROOM FOR IMPROVEMENT     (:II) - "},{"streetAddress":"371 6th Avenue","city":"New York","state":"NY","zoneNumber":2,"zipCode":"10014","meetingName":"SHERIDAN SQUARE FOLLIES - Sheridan Square Follies"},{"streetAddress":"155 Sullivan Street","city":"New York","state":"NY","zoneNumber":2,"zipCode":"10012","meetingName":"SOHO    (:I) - "},{"streetAddress":"7 East 10th Strert","city":"New York","state":"NY","zoneNumber":2,"zipCode":"10003","meetingName":"SPIRITUAL WORKSHOP - Spiritual Workshop"},{"streetAddress":"232 West 11th Street","city":"New York","state":"NY","zoneNumber":2,"zipCode":"South","meetingName":"T&amp;A-TOGETHERNESS &amp; ACTION - "},{"streetAddress":"81 Christopher Street","city":"New York","state":"NY","zoneNumber":2,"zipCode":"10014","meetingName":"TEN PLUS - "},{"streetAddress":"273 Bowery","city":"New York","state":"NY","zoneNumber":2,"zipCode":"10002","meetingName":"THE CAPTAIN&apos;S TABLE - "},{"streetAddress":"232 West 11th Street","city":"New York","state":"NY","zoneNumber":2,"zipCode":"10014","meetingName":"TOGETHER WE CAN - "},{"streetAddress":"232 West 11th Street","city":"New York","state":"NY","zoneNumber":2,"zipCode":"10014","meetingName":"WEDNESDAY FOCUS - Wednesday Focus"},{"streetAddress":"83 Christopher Street","city":"New York","state":"NY","zoneNumber":2,"zipCode":"10014","meetingName":"WEST VILLAGE WOMEN - "},{"streetAddress":"220 West Houston Street","city":"New York","state":"NY","zoneNumber":2,"zipCode":"10014","meetingName":"WOMEN INTO ACTION - Women Straight Ahead Saturday"},{"streetAddress":"273 Bowery","city":"New York","state":"NY","zoneNumber":2,"zipCode":"10002","meetingName":"WOMEN TOGETHER      (:II) - Women Together    (:II)"},{"streetAddress":"7 East 10th Street","city":"New York","state":"NY","zoneNumber":3,"zipCode":"","meetingName":"12 CONCEPTS WORKSHOP - "},{"streetAddress":"155 East 22nd Street","city":"New York","state":"NY","zoneNumber":3,"zipCode":"10010","meetingName":"22 BELOW - Twenty-Two Below"},{"streetAddress":"61 Fourth Avenue","city":"New York","state":"NY","zoneNumber":3,"zipCode":"10003","meetingName":"AA AT THE THREE JEWELS - MEDITATION - "},{"streetAddress":"208 West 13th Street","city":"New York","state":"NY","zoneNumber":3,"zipCode":"10011","meetingName":"AGNOSTICS AT NOON - Agnostics At Noon"},{"streetAddress":"123 East 15th Street","city":"New York","state":"NY","zoneNumber":3,"zipCode":"10003","meetingName":"ALIVE AGAIN - Alive Again"},{"streetAddress":"61 Gramercy Park North","city":"New York","state":"NY","zoneNumber":3,"zipCode":"10010","meetingName":"AT BILL&apos;S PLACE - At Bill&apos;s Place"},{"streetAddress":"155 East 22nd Street","city":"New York","state":"NY","zoneNumber":3,"zipCode":"10010","meetingName":"ATLANTIC BY THE BOOK - Atlantic By The Book"},{"streetAddress":"127 East 22nd Street","city":"New York","state":"NY","zoneNumber":3,"zipCode":"10010","meetingName":"ATLANTIC DOWNTOWN - "},{"streetAddress":"602 East 9th Street","city":"New York","state":"NY","zoneNumber":3,"zipCode":"10009","meetingName":"AVENUE B CLEAN AND DRY - "},{"streetAddress":"125 West 14th Street","city":"New York","state":"NY","zoneNumber":3,"zipCode":"10011","meetingName":"BIG BOOK MAGIC - "},{"streetAddress":"346 W. 20th Street","city":"New York","state":"NY","zoneNumber":3,"zipCode":"10011","meetingName":"CHELSEA MORNINGS - "},{"streetAddress":"125 West 14th Street","city":"New York","state":"NY","zoneNumber":3,"zipCode":"10011","meetingName":"CHELSEA NOONERS - Chelsea Nooners"},{"streetAddress":"414 East 14th Street","city":"New York","state":"NY","zoneNumber":3,"zipCode":"10009","meetingName":"COMPLETE ABANDON - Complete Abandon"},{"streetAddress":"119 Ninth Avenue","city":"New York","state":"NY","zoneNumber":3,"zipCode":"10011","meetingName":"COMPLETELY SOBER - Completely Sober"},{"streetAddress":"202 West 24 Street","city":"New York","state":"NY","zoneNumber":3,"zipCode":"10011","meetingName":"CROSSROADS - "},{"streetAddress":"28 Gramercy Park South","city":"New York","state":"NY","zoneNumber":3,"zipCode":"10003","meetingName":"EAST MEETS WEST IN SOBRIETY - East Meets West In Sobriety"},{"streetAddress":"50 East 7th Street","city":"New York","state":"NY","zoneNumber":3,"zipCode":"10003","meetingName":"EAST VILLAGE GROUP - East Village"},{"streetAddress":"273 Bowery","city":"New York","state":"NY","zoneNumber":3,"zipCode":"10003","meetingName":"EXPERIENCE STRENGTH AND HOPE - Experience Strength And Hope"},{"streetAddress":"802 Broadway","city":"New York","state":"NY","zoneNumber":3,"zipCode":"10003","meetingName":"GRACE ON BROADWAY - Grace On Broadway"},{"streetAddress":"28 Grammercy Park South","city":"New York","state":"NY","zoneNumber":3,"zipCode":"10010","meetingName":"GRAMERCY - Gramercy"},{"streetAddress":"209 East 16th Street","city":"New York","state":"NY","zoneNumber":3,"zipCode":"10003","meetingName":"GRATEFUL GROUP OF A.A. - "},{"streetAddress":"44 2nd Avenue","city":"New York","state":"NY","zoneNumber":3,"zipCode":"10003","meetingName":"GRUPO EL MILAGRO - Grupo El Milagro"},{"streetAddress":"229 West 14th Street","city":"New York","state":"NY","zoneNumber":3,"zipCode":"10011","meetingName":"GRUPO GRATITUD - Grupo Gratitud"},{"streetAddress":"229 West 14th Street","city":"New York","state":"NY","zoneNumber":3,"zipCode":"10011","meetingName":"GRUPO SOBRIEDAD - Grupo Sobriedad"},{"streetAddress":"208 West 13th Street","city":"New York","state":"NY","zoneNumber":3,"zipCode":"10011","meetingName":"HIGH NOON - High Noon"},{"streetAddress":"28 Gramercy Park South","city":"New York","state":"NY","zoneNumber":3,"zipCode":"10003","meetingName":"JUST FOR TODAY - Just For Today"},{"streetAddress":"208 W 13th Street","city":"New York","state":"NY","zoneNumber":3,"zipCode":"10001","meetingName":"LAeX - TERMINAL UNIQUENESS - "},{"streetAddress":"307 W. 26th St.","city":"New York","state":"NY","zoneNumber":3,"zipCode":"10011","meetingName":"LEARNING TO LIVE ( :1) - "},{"streetAddress":"343 West 25th Street","city":"New York","state":"NY","zoneNumber":3,"zipCode":"10001","meetingName":"LEARNING TO LIVE ( :II) - "},{"streetAddress":"80 St. Mark&apos;s Place","city":"New York","state":"NY","zoneNumber":3,"zipCode":"10003","meetingName":"LIVING NOW - Living Now     (:II)"},{"streetAddress":"208 West 13th Street","city":"New York","state":"NY","zoneNumber":3,"zipCode":"10011","meetingName":"LIVING TODAY - Living Today"},{"streetAddress":"51 East 25th Street","city":"New York","state":"NY","zoneNumber":3,"zipCode":"10010","meetingName":"MADISON PARK BEGINNERS - Madison Park Beginners"},{"streetAddress":"155 East 22nd Street","city":"New York","state":"NY","zoneNumber":3,"zipCode":"10010","meetingName":"MANHATTAN - Manhattan"},{"streetAddress":"7 East 10th Street","city":"New York","state":"NY","zoneNumber":3,"zipCode":"10003","meetingName":"N.Y.U. (NOW YOU UNDERSTAND) - N.Y.U. (Now You Understand)"},{"streetAddress":"315 West 22nd Street","city":"New York","state":"NY","zoneNumber":3,"zipCode":"10011","meetingName":"NEVER HAD A LEGAL DRINK - Never Had A Legal Drink"},{"streetAddress":"15 Rutherford Place","city":"New York","state":"NY","zoneNumber":3,"zipCode":"10003","meetingName":"NEW LIFE IN SOBRIETY - New Life In Sobriety"},{"streetAddress":"25 East 15th- Conference Room H","city":"New York","state":"NY","zoneNumber":3,"zipCode":"","meetingName":"NINJAS IN RECOVERY - "},{"streetAddress":"175 9th Avenue","city":"New York","state":"NY","zoneNumber":3,"zipCode":"10011","meetingName":"NINTH AVENUE           (:II) - Ninth Avenue    (:II)"},{"streetAddress":"19 Union Square West","city":"New York","state":"NY","zoneNumber":3,"zipCode":"10003","meetingName":"OADW (ONCE A DRUNK WOMAN) - "},{"streetAddress":"155 East 22nd Street","city":"New York","state":"NY","zoneNumber":3,"zipCode":"10010","meetingName":"P.A.X - P.A.X"},{"streetAddress":"423 East 23rd Street","city":"New York","state":"NY","zoneNumber":3,"zipCode":"10010","meetingName":"POT LUCK - "},{"streetAddress":"209 East 16th Street","city":"New York","state":"NY","zoneNumber":3,"zipCode":"10003","meetingName":"POTPOURRI - Potpourri"},{"streetAddress":"411 East 12th Street","city":"New York","state":"NY","zoneNumber":3,"zipCode":"10009","meetingName":"PRIMETIME NYC (II) - "},{"streetAddress":"209 East 16th Street","city":"New York","state":"NY","zoneNumber":3,"zipCode":"10003","meetingName":"SATURDAY BEGINNERS - Saturday Beginners"},{"streetAddress":"239 East 21st Street","city":"New York","state":"NY","zoneNumber":3,"zipCode":"10009","meetingName":"SATURDAY WEEKENDERS - "},{"streetAddress":"12 West 12th Street","city":"New York","state":"NY","zoneNumber":3,"zipCode":"10011","meetingName":"SAVE HER A SEAT - Save Her A Seat"},{"streetAddress":"44 2nd Avenue","city":"New York","state":"NY","zoneNumber":3,"zipCode":"10003","meetingName":"SECOND AVENUE CLEAN AND DRY - Second Avenue Clean And Dry"},{"streetAddress":"208 West 13th Street","city":"New York","state":"NY","zoneNumber":3,"zipCode":"10011","meetingName":"SOBER MIRACLES - Sober Miracles"},{"streetAddress":"12 West 11th Street","city":"New York","state":"NY","zoneNumber":3,"zipCode":"10011","meetingName":"SOBRIETY ON THE SQUARE - Sobriety On The Square"},{"streetAddress":"116 West 11th Street","city":"New York","state":"NY","zoneNumber":3,"zipCode":"","meetingName":"SPEAKER MAGIC - "},{"streetAddress":"80 5th Avenue","city":"New York","state":"NY","zoneNumber":3,"zipCode":"10011","meetingName":"STRAIGHT 12 (:II)  DOWNTOWN SATURDAY NIGHT - "},{"streetAddress":"116 W. 11th Street","city":"New York","state":"NY","zoneNumber":3,"zipCode":"10011","meetingName":"SUNDAY AT SIX - Sunday At Six"},{"streetAddress":"155 East 22nd Street","city":"New York","state":"NY","zoneNumber":3,"zipCode":"10010","meetingName":"SUNDAY MORNING MEDITATION - "},{"streetAddress":"319 Eastr 24th Street","city":"New York","state":"NY","zoneNumber":3,"zipCode":"10010","meetingName":"SUNDAY NOONERS - Sunday Nooners"},{"streetAddress":"10 East Union Square","city":"New York","state":"NY","zoneNumber":3,"zipCode":"10003","meetingName":"SURVIVORS IN SOBRIETY - "},{"streetAddress":"206-208 East 11th Street","city":"New York","state":"NY","zoneNumber":3,"zipCode":"10003","meetingName":"SVOBODA - "},{"streetAddress":"123 East 15th Street","city":"New York","state":"NY","zoneNumber":3,"zipCode":"10003","meetingName":"T.G.I.F. &amp; S. - T.G.I.F. &amp; S."},{"streetAddress":"411 East 12th Street","city":"New York","state":"NY","zoneNumber":3,"zipCode":"10009","meetingName":"THE 12th STREET WORKSHOP - "},{"streetAddress":"125 West 14th Street","city":"New York","state":"NY","zoneNumber":3,"zipCode":"10011","meetingName":"THE FELLOWSHIP CLUB - Fellowship Club"},{"streetAddress":"208 West 13th Street","city":"New York","state":"NY","zoneNumber":3,"zipCode":"10011","meetingName":"TRANSGENDER FOCUS - "},{"streetAddress":"10 Union Square East","city":"New York","state":"NY","zoneNumber":3,"zipCode":"10003","meetingName":"TWELVE AT SIX - Twelve At Six"},{"streetAddress":"155 West 22nd Street","city":"New York","state":"NY","zoneNumber":3,"zipCode":"10011","meetingName":"UPON AWAKENING - "},{"streetAddress":"208 West 13th Street","city":"New York","state":"NY","zoneNumber":3,"zipCode":"10011","meetingName":"VILLAGE AGNOSTICS - Village Agnostics"},{"streetAddress":"12 West 12th Street","city":"New York","state":"NY","zoneNumber":3,"zipCode":"10011","meetingName":"VILLAGE OPEN DISCUSSION  (V.O.D.) - Village Open Discussion"},{"streetAddress":"20 Washington Square North","city":"New York","state":"NY","zoneNumber":3,"zipCode":"10011","meetingName":"VILLAGE SOBER - OVER &amp; UNDER 60 - "},{"streetAddress":"344 East 14th Street","city":"New York","state":"NY","zoneNumber":3,"zipCode":"10003","meetingName":"WEEKENDERS - "},{"streetAddress":"155 West 22nd Street","city":"New York","state":"NY","zoneNumber":3,"zipCode":"10011","meetingName":"WEST 22nd STREET SOBRIETY - West 22nd Street Sobriety"},{"streetAddress":"208 West 13th Street","city":"New York","state":"NY","zoneNumber":3,"zipCode":"10011","meetingName":"WESTWINGERS - Westwingers    (:I)"},{"streetAddress":"602 East 9th Street","city":"New York","state":"NY","zoneNumber":3,"zipCode":"10009","meetingName":"WHOLESALE MIRACLES - "},{"streetAddress":"208 West 13th Street","city":"New York","state":"NY","zoneNumber":3,"zipCode":"10011","meetingName":"WOMEN NOW - Women Now"},{"streetAddress":"208 West 13th Street","city":"New York","state":"NY","zoneNumber":3,"zipCode":"10011","meetingName":"WOMEN TOGETHER                      (:I) - Women Together    (:I)"},{"streetAddress":"19 Union Square West","city":"New York","state":"NY","zoneNumber":3,"zipCode":"10003","meetingName":"WOMEN&apos;S SATURDAY ELEVENTH STEP MEDITATION - Women&apos;s Saturday Eleventh Step Meditation"},{"streetAddress":"173 East 3rd Street- basement","city":"New York","state":"NY","zoneNumber":3,"zipCode":"10009","meetingName":"WORKS IN PROGRESS - "},{"streetAddress":"50 East 7th Street","city":"New York","state":"NY","zoneNumber":3,"zipCode":"10003","meetingName":"YOUNG AND WISE - Young And Wise"},{"streetAddress":"252 West 46th Street","city":"New York","state":"NY","zoneNumber":4,"zipCode":"10036","meetingName":"4 THE GRACE - "},{"streetAddress":"303 West 42nd Street","city":"New York","state":"NY","zoneNumber":4,"zipCode":"10036","meetingName":"42nd AT 9:00pm - "},{"streetAddress":"303 West 42nd Street","city":"New York","state":"NY","zoneNumber":4,"zipCode":"10036","meetingName":"A NEW FREEDOM - "},{"streetAddress":"305 7th Avenue","city":"New York","state":"NY","zoneNumber":4,"zipCode":"10001","meetingName":"ABINGDON SQUARE IN CHELSEA - Abingdon Square In Chelsea"},{"streetAddress":"1 West 53rd Street","city":"New York","state":"NY","zoneNumber":4,"zipCode":"10019","meetingName":"ADVENTURES IN SOBRIETY - "},{"streetAddress":"303 West 42nd Street","city":"New York","state":"NY","zoneNumber":4,"zipCode":"10036","meetingName":"ALANON HOUSE   (AA Meetings Only) - "},{"streetAddress":"133 West 46th Street","city":"New York","state":"NY","zoneNumber":4,"zipCode":"10036","meetingName":"AMAZING GRACE - Amazing Grace"},{"streetAddress":"441 West 26th Street","city":"New York","state":"NY","zoneNumber":4,"zipCode":"10001","meetingName":"ANNEX                               (:I) - Annex    (:I)"},{"streetAddress":"446 West 33rd Street","city":"New York","state":"NY","zoneNumber":4,"zipCode":"10001","meetingName":"ANNEX    (:II) - Annex    (:II)"},{"streetAddress":"252 West 46th Street","city":"New York","state":"NY","zoneNumber":4,"zipCode":"10036","meetingName":"ARTISTS IN RECOVERY - "},{"streetAddress":"252 West 46th Street","city":"New York","state":"NY","zoneNumber":4,"zipCode":"10036","meetingName":"BEGINNERS - "},{"streetAddress":"252 West 46th Street","city":"New York","state":"NY","zoneNumber":4,"zipCode":"10036","meetingName":"BEGINNERS - "},{"streetAddress":"339 West 47th Street","city":"New York","state":"NY","zoneNumber":4,"zipCode":"10036","meetingName":"BETWEEN SHOWS - Between Shows"},{"streetAddress":"303 West 42nd St Rm 306","city":"New York","state":"NY","zoneNumber":4,"zipCode":"10036","meetingName":"BLUEPRINT FOR LIVING - "},{"streetAddress":"139 West 31st Street","city":"New York","state":"NY","zoneNumber":4,"zipCode":"10001","meetingName":"BOOKSHOP AT NOON - Bookshop At Noon"},{"streetAddress":"422 West 57th Street","city":"New York","state":"NY","zoneNumber":4,"zipCode":"10019","meetingName":"CLEAN AND DRY - Clean And Dry"},{"streetAddress":"211 West 30th Street","city":"New York","state":"NY","zoneNumber":4,"zipCode":"10001","meetingName":"COMMUTERS SPECIAL - Commuters Special"},{"streetAddress":"252 West 46th Street","city":"New York","state":"NY","zoneNumber":4,"zipCode":"10036","meetingName":"D.I.V.A.  (Divinely Inspired Vivacious Alcoholics) - "},{"streetAddress":"1 West 53rd Street","city":"New York","state":"NY","zoneNumber":4,"zipCode":"10019","meetingName":"FIFTH AVENUE STEP - "},{"streetAddress":"422 West 57th Street","city":"New York","state":"NY","zoneNumber":4,"zipCode":"10019","meetingName":"FIRESIDE  (:I)  WEEKDAY MEETINGS ONLY - Fireside"},{"streetAddress":"7 West 55th Street","city":"New York","state":"NY","zoneNumber":4,"zipCode":"10019","meetingName":"FOGLIFTERS-FIFTH AVENUE - Foglifters-Fifth Avenue"},{"streetAddress":"252 West 46th Street","city":"New York","state":"NY","zoneNumber":4,"zipCode":"10036","meetingName":"FORTY-FIVE SOLUTIONS - Forty-Five Solutions"},{"streetAddress":"729 7th Avenue","city":"New York","state":"NY","zoneNumber":4,"zipCode":"10019","meetingName":"GREEN ROOM - Green Room"},{"streetAddress":"538 West 47th Street","city":"New York","state":"NY","zoneNumber":4,"zipCode":"10036","meetingName":"GRUPO BUENA VOLUNTAD - Grupo Buena Voluntad"},{"streetAddress":"1000 Tenth Avenue","city":"New York","state":"NY","zoneNumber":4,"zipCode":"10019","meetingName":"HELL&apos;S KITCHEN - Hell&apos;s Kitchen"},{"streetAddress":"303 West 42nd Street","city":"New York","state":"NY","zoneNumber":4,"zipCode":"10036","meetingName":"HENRY HUDSON - Henry Hudson"},{"streetAddress":"252 West 46th Street","city":"New York","state":"NY","zoneNumber":4,"zipCode":"10036","meetingName":"JOE AND CHARLIE CD MEETING - "},{"streetAddress":"307 West 26th Street","city":"New York","state":"NY","zoneNumber":4,"zipCode":"10001","meetingName":"LEARNING TO LIVE (:I) - Learning To Live"},{"streetAddress":"405 West 59th Street","city":"New York","state":"NY","zoneNumber":4,"zipCode":"10019","meetingName":"LUCKY ONES - "},{"streetAddress":"303 West 42nd Street","city":"New York","state":"NY","zoneNumber":4,"zipCode":"10036","meetingName":"MIDNIGHT IN MIDTOWN - "},{"streetAddress":"422 W. 57th St.","city":"New York","state":"NY","zoneNumber":4,"zipCode":"10019","meetingName":"MIRACLE - Miracle"},{"streetAddress":"133 West 46th Street","city":"New York","state":"NY","zoneNumber":4,"zipCode":"10036","meetingName":"MORNING CALL - "},{"streetAddress":"133 West 46th Street","city":"New York","state":"NY","zoneNumber":4,"zipCode":"10036","meetingName":"NEW BUT WEST - New But West"},{"streetAddress":"303 West 42nd Street","city":"New York","state":"NY","zoneNumber":4,"zipCode":"10036","meetingName":"NEW PHOENIX - "},{"streetAddress":"296 9th Avenue","city":"New York","state":"NY","zoneNumber":4,"zipCode":"10001","meetingName":"NINTH AVENUE           (:I) - Ninth Avenue     (:I)"},{"streetAddress":"139 West 31st Street","city":"New York","state":"NY","zoneNumber":4,"zipCode":"10001","meetingName":"NU GARDEN - Nu Garden"},{"streetAddress":"1 West 53rd Street","city":"New York","state":"NY","zoneNumber":4,"zipCode":"","meetingName":"PARK BENCH   (:I) - "},{"streetAddress":"484 West 43rd Street","city":"New York","state":"NY","zoneNumber":4,"zipCode":"10036","meetingName":"POWERLESS - Powerless"},{"streetAddress":"7 West 55th Street","city":"New York","state":"NY","zoneNumber":4,"zipCode":"10019","meetingName":"PROMISES - Promises"},{"streetAddress":"252 West 46th Street","city":"New York","state":"NY","zoneNumber":4,"zipCode":"10036","meetingName":"PROMISES - "},{"streetAddress":"252 West 46th Street","city":"New York","state":"NY","zoneNumber":4,"zipCode":"10036","meetingName":"RAINBOW ROOM - Rainbow Room"},{"streetAddress":"4 West 43rd Street","city":"New York","state":"NY","zoneNumber":4,"zipCode":"10017","meetingName":"RENAISSANCE - Renaissance"},{"streetAddress":"252 West 46th Street","city":"New York","state":"NY","zoneNumber":4,"zipCode":"10036","meetingName":"SATURDAY ROTATING 12 STEP - "},{"streetAddress":"296 Ninth Avenue","city":"New York","state":"NY","zoneNumber":4,"zipCode":"10001","meetingName":"SPIRITUAL FRIDAYS - "},{"streetAddress":"1 West 53rd Street","city":"New York","state":"NY","zoneNumber":4,"zipCode":"10019","meetingName":"ST. THOMAS A.M. - St. Thomas A.M."},{"streetAddress":"210 West 31st Street","city":"New York","state":"NY","zoneNumber":4,"zipCode":"10001","meetingName":"STATLER AT NOON - Statler At Noon"},{"streetAddress":"422 West 57th Street","city":"New York","state":"NY","zoneNumber":4,"zipCode":"10019","meetingName":"STEPS AND TRADITIONS ON WEDNESDAY - Eightieth Street"},{"streetAddress":"252 West 46th Street","city":"New York","state":"NY","zoneNumber":4,"zipCode":"10036","meetingName":"SUNDAY NIGHT BEGINNERS - "},{"streetAddress":"134 West 29th Street - 2nd floor Studio 203","city":"New York","state":"NY","zoneNumber":4,"zipCode":"","meetingName":"TUESDAY SOBER AGNOSTICS - "},{"streetAddress":"1000 Tenth Avenue","city":"New York","state":"NY","zoneNumber":4,"zipCode":"10019","meetingName":"WEST 58th STREET STEP - West 58th Street Step"},{"streetAddress":"446 West 33rd Street","city":"New York","state":"NY","zoneNumber":4,"zipCode":"10001","meetingName":"WOMEN OVER FORTY - Women Over Forty"},{"streetAddress":"423 West 46th Street","city":"New York","state":"NY","zoneNumber":4,"zipCode":"10036","meetingName":"YOUNG IN 164 - "},{"streetAddress":"252 West 46th Street","city":"New York","state":"NY","zoneNumber":4,"zipCode":"10036","meetingName":"YOUNG PEOPLE&apos;S MEETING - "},{"streetAddress":"122 East 37th Street","city":"New York","state":"NY","zoneNumber":5,"zipCode":"10016","meetingName":"AA LITERATURE - AA Literature"},{"streetAddress":"30 East 35th Street","city":"New York","state":"NY","zoneNumber":5,"zipCode":"10016","meetingName":"BREAKFAST CLUB - Breakfast Club"},{"streetAddress":"350 East 56th Street","city":"New York","state":"NY","zoneNumber":5,"zipCode":"10022","meetingName":"CARLYLE - Carlyle"},{"streetAddress":"619 Lexington Avenue","city":"New York","state":"NY","zoneNumber":5,"zipCode":"10022","meetingName":"CITY GROUP - Citikorp"},{"streetAddress":"122 East 37th Street","city":"New York","state":"NY","zoneNumber":5,"zipCode":"10016","meetingName":"COURAGE TO CHANGE - Courage To Change"},{"streetAddress":"28 East 35th Street","city":"New York","state":"NY","zoneNumber":5,"zipCode":"10016","meetingName":"EMPIRE STATE - Empire State"},{"streetAddress":"350 East 56th Street ","city":"New York","state":"NY","zoneNumber":5,"zipCode":"10022","meetingName":"GOTHAM - Gotham"},{"streetAddress":"283 Lexington Avenue","city":"New York","state":"NY","zoneNumber":5,"zipCode":"10016","meetingName":"GRAND CENTRAL - Grand Central"},{"streetAddress":"122 East 37th Street","city":"New York","state":"NY","zoneNumber":5,"zipCode":"10016","meetingName":"GRUPO BRASIL - "},{"streetAddress":"619 Lexington Avenue","city":"New York","state":"NY","zoneNumber":5,"zipCode":"10022","meetingName":"LIFE LINE - Life Line"},{"streetAddress":"141 East 43rd Street","city":"New York","state":"NY","zoneNumber":5,"zipCode":"10017","meetingName":"LUNCH BUNCH - Lunch Bunch"},{"streetAddress":"122 E 37TH St.","city":"New York","state":"NY","zoneNumber":5,"zipCode":"10016","meetingName":"LUNCHTIME EXPRESS AT THE MUSTARD SEED - "},{"streetAddress":"122 East 37th Street","city":"New York","state":"NY","zoneNumber":5,"zipCode":"10016","meetingName":"MEDITATION SATURDAY NIGHT - Meditation Saturday Night"},{"streetAddress":"141 East 43rd Street","city":"New York","state":"NY","zoneNumber":5,"zipCode":"10017","meetingName":"MONDAY MEN - Monday Men"},{"streetAddress":"209 Madison Avenue","city":"New York","state":"NY","zoneNumber":5,"zipCode":"10016","meetingName":"MURRAY HILL - Murray Hill"},{"streetAddress":"122 East 37th Street","city":"New York","state":"NY","zoneNumber":5,"zipCode":"10016","meetingName":"MUSTARD SEED - Mustard Seed     (:I)"},{"streetAddress":"619 Lexington Avenue","city":"New York","state":"NY","zoneNumber":5,"zipCode":"10022","meetingName":"REBELLION DOGS - "},{"streetAddress":"240 East 31st Street","city":"New York","state":"NY","zoneNumber":5,"zipCode":"","meetingName":"SATURDAY EAST - Saturday East"},{"streetAddress":"114 East 35th Street","city":"New York","state":"NY","zoneNumber":5,"zipCode":"10016","meetingName":"SATURDAY STEP - Saturday Step"},{"streetAddress":"230 East 60th Street (Basement) ","city":"New York","state":"NY","zoneNumber":5,"zipCode":"10022","meetingName":"SERENITY EAST - Serenity East"},{"streetAddress":"244 East 58th Street","city":"New York","state":"NY","zoneNumber":5,"zipCode":"10022","meetingName":"SERENITY EAST (:I) - "},{"streetAddress":"619 Lexington Avenue","city":"New York","state":"NY","zoneNumber":5,"zipCode":"10022","meetingName":"SILKWORTH WOMEN&apos;S - Silkworth Women&apos;s"},{"streetAddress":"325 Park Avenue","city":"New York","state":"NY","zoneNumber":5,"zipCode":"10022","meetingName":"ST. BART&apos;S TWELVE-THIRTIES - St. Bart&apos;s Twelve-Thirties"},{"streetAddress":"236 EAST 31st STREET ","city":"New York","state":"NY","zoneNumber":5,"zipCode":"10016","meetingName":"STRAIGHT 12 - "},{"streetAddress":"308 East 55th Street","city":"New York","state":"NY","zoneNumber":5,"zipCode":"10022","meetingName":"TEMPLETON - Templeton"},{"streetAddress":"244 East 58th Street","city":"New York","state":"NY","zoneNumber":5,"zipCode":"10022","meetingName":"TRAFALGAR - Trafalgar"},{"streetAddress":"244 East 58th Street","city":"New York","state":"NY","zoneNumber":5,"zipCode":"10022","meetingName":"TUDOR - Tudor"},{"streetAddress":"109 East 50th Street","city":"New York","state":"NY","zoneNumber":5,"zipCode":"10022","meetingName":"WOMEN&apos;S ELEVENTH STEP - Women&apos;s Eleventh Step"},{"streetAddress":"207 West 96th Street","city":"New York","state":"NY","zoneNumber":6,"zipCode":"10025","meetingName":"A NEW DAY - A New Day"},{"streetAddress":"120 West 69th Street","city":"New York","state":"NY","zoneNumber":6,"zipCode":"10023","meetingName":"A VISION FOR YOU - A Vision For You"},{"streetAddress":"422 West 57th Street","city":"New York","state":"NY","zoneNumber":6,"zipCode":"10023","meetingName":"AFTER EIGHT (:i) - After Eight"},{"streetAddress":"164 West 74th Street","city":"New York","state":"NY","zoneNumber":6,"zipCode":"","meetingName":"AFTER EIGHT (:ii) - "},{"streetAddress":"207 West 96th Street","city":"New York","state":"NY","zoneNumber":6,"zipCode":"10025","meetingName":"ALTERED ATTITUDES - Altered Attitudes"},{"streetAddress":"144 West 90th Street","city":"New York","state":"NY","zoneNumber":6,"zipCode":"10024","meetingName":"AMSTERDAM - Amsterdam"},{"streetAddress":"141 West 73rd Street","city":"New York","state":"NY","zoneNumber":6,"zipCode":"10023","meetingName":"ANSONIA - Ansonia"},{"streetAddress":"4 West 76th Street. Meeting in the gym.","city":"New York","state":"NY","zoneNumber":6,"zipCode":"10023","meetingName":"ATLANTIC WEST STEP &amp; TRADITION - Atlantic West Step &amp; Tradition"},{"streetAddress":"221 West 107th Street","city":"New York","state":"NY","zoneNumber":6,"zipCode":"10025","meetingName":"BLOOMINGDALE - Bloomingdale"},{"streetAddress":"207 West 96th Street","city":"New York","state":"NY","zoneNumber":6,"zipCode":"10025","meetingName":"BROADWAY AT 96TH - Broadway At 96th"},{"streetAddress":"215 West 82nd Street","city":"New York","state":"NY","zoneNumber":6,"zipCode":"10024","meetingName":"CADILLACS FOR EVERYONE - Cadillacs For Everyone"},{"streetAddress":"601 West 114th Street","city":"New York","state":"NY","zoneNumber":6,"zipCode":"","meetingName":"CAMPUS CHEER - Campus Cheer"},{"streetAddress":"Central Park West &amp; 76th Street - basement gymnasium","city":"New York","state":"NY","zoneNumber":6,"zipCode":"10023","meetingName":"CENTRAL PARK WEST - Central Park West"},{"streetAddress":"5 West 63rd Street","city":"New York","state":"NY","zoneNumber":6,"zipCode":"10023","meetingName":"CHELSEA RIVERSIDE - "},{"streetAddress":"4 West 76th Street","city":"New York","state":"NY","zoneNumber":6,"zipCode":"10023","meetingName":"CHOCK FULL OF SOBRIETY - "},{"streetAddress":"160 Central Park West","city":"New York","state":"NY","zoneNumber":6,"zipCode":"10023","meetingName":"CLASSEN HALL     (:II) - Classen Hall    (:II)"},{"streetAddress":"152 West 66th Street","city":"New York","state":"NY","zoneNumber":6,"zipCode":"10023","meetingName":"CLASSEN HALL STEP MEETING  ( :I ) - Classen Hall"},{"streetAddress":"3 West 95th Street","city":"New York","state":"NY","zoneNumber":6,"zipCode":"10025","meetingName":"COLUMBUS AT FIVE - Columbus At Five"},{"streetAddress":"251 West 80th Street","city":"New York","state":"NY","zoneNumber":6,"zipCode":"","meetingName":"EIGHTIETH STREET BEGINNERS - "},{"streetAddress":"111 West 71st Street","city":"New York","state":"NY","zoneNumber":6,"zipCode":"10023","meetingName":"FAST BREAK - Fast Break"},{"streetAddress":"5 West 63rd Street","city":"New York","state":"NY","zoneNumber":6,"zipCode":"10023","meetingName":"FAST BREAK WEEKEND - "},{"streetAddress":"5 West 63rd Street","city":"New York","state":"NY","zoneNumber":6,"zipCode":"10023","meetingName":"FIRESIDE  (:II)  WEEKEND MEETINGS ONLY - "},{"streetAddress":"207 West 96th Street","city":"New York","state":"NY","zoneNumber":6,"zipCode":"10025","meetingName":"FIRST THINGS FIRST - First Things First"},{"streetAddress":"26 West 84th Street","city":"New York","state":"NY","zoneNumber":6,"zipCode":"10024","meetingName":"FRIDAY NIGHT STEP - "},{"streetAddress":"200 West 97th Street","city":"New York","state":"NY","zoneNumber":6,"zipCode":"10025","meetingName":"GRUPO CAMINO REAL - Grupo Camino Real"},{"streetAddress":"218 West 108th Street","city":"New York","state":"NY","zoneNumber":6,"zipCode":"10025","meetingName":"GRUPO DULCES 24 - Grupo Dulces 24"},{"streetAddress":"125 West 104th Street","city":"New York","state":"NY","zoneNumber":6,"zipCode":"10025","meetingName":"GRUPO LUZ DIVINA - "},{"streetAddress":"141 West 73rd Street","city":"New York","state":"NY","zoneNumber":6,"zipCode":"10023","meetingName":"HARGRAVE - Hargrave House"},{"streetAddress":"236 West 73rd Street","city":"New York","state":"NY","zoneNumber":6,"zipCode":"10023","meetingName":"LAMBDA WEST - Lambda West"},{"streetAddress":"165 West 105th Street","city":"New York","state":"NY","zoneNumber":6,"zipCode":"10025","meetingName":"MANHATTAN VALLEY - Manhattan Valley"},{"streetAddress":"207 West 96th Street","city":"New York","state":"NY","zoneNumber":6,"zipCode":"10025","meetingName":"METROPOLIS MEN&apos;S MEETING - "},{"streetAddress":"207 West 96th Street","city":"New York","state":"NY","zoneNumber":6,"zipCode":"10025","meetingName":"MID-DAY CHEER - Mid-Day Cheer"},{"streetAddress":"2504 Broadway","city":"New York","state":"NY","zoneNumber":6,"zipCode":"10025","meetingName":"MORNINGSIDE - Morningside"},{"streetAddress":"405 West 114th Street","city":"New York","state":"NY","zoneNumber":6,"zipCode":"10025","meetingName":"MORNINGSIDE HEIGHTS BEGINNERS - "},{"streetAddress":"368 West End Ave","city":"New York","state":"NY","zoneNumber":6,"zipCode":"10024","meetingName":"NEVER TOO LATE - Never Too Late"},{"streetAddress":"225 West 99th Street","city":"New York","state":"NY","zoneNumber":6,"zipCode":"10025","meetingName":"NIGHT LIGHT - Night Light"},{"streetAddress":"251 West 100th Street","city":"New York","state":"NY","zoneNumber":6,"zipCode":"10025","meetingName":"NIGHT LIGHT BEGINNERS - Night Light Beginners"},{"streetAddress":"207 West 96th Street","city":"New York","state":"NY","zoneNumber":6,"zipCode":"10025","meetingName":"NINETY-SIXTH STREET WORKSHOP - Ninety-Sixth Street Workshop"},{"streetAddress":"26 West 84th Street","city":"New York","state":"NY","zoneNumber":6,"zipCode":"10024","meetingName":"OXFORD  (:I) - Oxford"},{"streetAddress":"5 West 63rd Street","city":"New York","state":"NY","zoneNumber":6,"zipCode":"10023","meetingName":"PROMISES PROMISES - Promises Promises"},{"streetAddress":"552 West End Avenue","city":"New York","state":"NY","zoneNumber":6,"zipCode":"10024","meetingName":"RENEWAL WEST - Renewal West"},{"streetAddress":"164 West 74 Street","city":"New York","state":"NY","zoneNumber":6,"zipCode":"10024","meetingName":"ROUTES - "},{"streetAddress":"340 West 85th Street","city":"New York","state":"NY","zoneNumber":6,"zipCode":"10024","meetingName":"RUDE AWAKENING - Rude Awakening"},{"streetAddress":"368 West End Avenue","city":"New York","state":"NY","zoneNumber":6,"zipCode":"10024","meetingName":"SMITHEREENS - Smithereens"},{"streetAddress":"152 West 71st Street","city":"New York","state":"NY","zoneNumber":6,"zipCode":"10023","meetingName":"SOBER STEPPING - Sober Stepping"},{"streetAddress":"5 West 63rd Street","city":"New York","state":"NY","zoneNumber":6,"zipCode":"10023","meetingName":"SUNDAY MEN&apos;S TOPIC - Sunday Men&apos;s Topic"},{"streetAddress":"131 West 72nd Street","city":"New York","state":"NY","zoneNumber":6,"zipCode":"10023","meetingName":"SUNDAY WEST - Sunday West"},{"streetAddress":"207 West 96th Street","city":"New York","state":"NY","zoneNumber":6,"zipCode":"10025","meetingName":"TURN IT OVER - Turn It Over"},{"streetAddress":"152 West 71st Street","city":"New York","state":"NY","zoneNumber":6,"zipCode":"10023","meetingName":"WAY OF LIFE - Way Of Life"},{"streetAddress":"30 West 68th Street","city":"New York","state":"NY","zoneNumber":6,"zipCode":"10023","meetingName":"WE AGNOSTICS OF NYC - We Agnostics Of NYC"},{"streetAddress":"207 West 96th Street","city":"New York","state":"NY","zoneNumber":6,"zipCode":"","meetingName":"WE ARE NOT DOCTORS (WESTSIDE) - "},{"streetAddress":"263 West 86th Street","city":"New York","state":"NY","zoneNumber":6,"zipCode":"10024","meetingName":"WEST END - West End"},{"streetAddress":"306 West 102nd Street","city":"New York","state":"NY","zoneNumber":6,"zipCode":"10025","meetingName":"WESTSIDE 11th STEP MEDITATION WORKSHOP - Westside 11th Step Meditation Workshop"},{"streetAddress":"152 West 71st Street","city":"New York","state":"NY","zoneNumber":6,"zipCode":"","meetingName":"WESTSIDE STEP - Westside Step"},{"streetAddress":"26 West 84th Street","city":"New York","state":"NY","zoneNumber":6,"zipCode":"10024","meetingName":"WESTSIDE YOUNG PEOPLE - Westside Young People"},{"streetAddress":"595 Columbus Avenue","city":"New York","state":"NY","zoneNumber":6,"zipCode":"10024","meetingName":"WITHOUT A PRAYER - "},{"streetAddress":"306 West 102nd Street","city":"New York","state":"NY","zoneNumber":6,"zipCode":"10025","meetingName":"WOMEN LIVING SOBER - Women Living Sober"},{"streetAddress":"213 West 82nd Street","city":"New York","state":"NY","zoneNumber":6,"zipCode":"10024","meetingName":"WOMEN WEST AA - Women West AA"},{"streetAddress":"152 West 71st Street","city":"New York","state":"NY","zoneNumber":6,"zipCode":"10023","meetingName":"WOMEN&apos;S BEGINNING LITERATURE - "},{"streetAddress":"152 west 71st street","city":"New York","state":"NY","zoneNumber":6,"zipCode":"Avenues)","meetingName":"WOMEN&apos;S ELEVENTH STEP MEETING - "},{"streetAddress":"152 West 71st Street","city":"New York","state":"NY","zoneNumber":6,"zipCode":"10023","meetingName":"WOMEN&apos;S TELL IT LIKE IT IS - Women&apos;s Tell It Like It Is"},{"streetAddress":"160 Central Park West","city":"New York","state":"NY","zoneNumber":6,"zipCode":"10023","meetingName":"WOMEN&apos;S WESTSIDE TOPIC - Women&apos;s Westside Topic"},{"streetAddress":"207 West 96th Street","city":"New York","state":"NY","zoneNumber":6,"zipCode":"10025","meetingName":"WRITING SOBER - Writing Sober"},{"streetAddress":"351 East 74th Street","city":"New York","state":"NY","zoneNumber":7,"zipCode":"10021","meetingName":"A BAFFLED LOT - "},{"streetAddress":"48 East 80th Street","city":"New York","state":"NY","zoneNumber":7,"zipCode":"10021","meetingName":"A.A. TRADITIONS AND HISTORY - "},{"streetAddress":"184 East 76th Street","city":"New York","state":"NY","zoneNumber":7,"zipCode":"10021","meetingName":"ACTIVE - Active"},{"streetAddress":"351 East 74th Street","city":"New York","state":"NY","zoneNumber":7,"zipCode":"10021","meetingName":"AFTERNOON AWAKENING - "},{"streetAddress":"1393 York Avenue","city":"New York","state":"NY","zoneNumber":7,"zipCode":"10021","meetingName":"ATLANTIC ELEVENTH STEP MEDITATION - "},{"streetAddress":"520 Park Avenue","city":"New York","state":"NY","zoneNumber":7,"zipCode":"10021","meetingName":"ATLANTIC GROUP (:I) - Atlantic    (:I)"},{"streetAddress":"337 E. 74th St.","city":"New York","state":"NY","zoneNumber":7,"zipCode":"10021","meetingName":"ATLANTIC GROUP (:II) - "},{"streetAddress":"1157 Lexington Avenue","city":"New York","state":"NY","zoneNumber":7,"zipCode":"10075","meetingName":"ATLANTIC GROUP (:III) - "},{"streetAddress":"420 East 76th Street","city":"New York","state":"NY","zoneNumber":7,"zipCode":"10021","meetingName":"BREAKING THROUGH - Breaking Through"},{"streetAddress":"230 East 90th Street","city":"New York","state":"NY","zoneNumber":7,"zipCode":"10128","meetingName":"CAME TO BELIEVE - Came To Believe"},{"streetAddress":"65 East 89th Street","city":"New York","state":"NY","zoneNumber":7,"zipCode":"10128","meetingName":"CARNEGIE HILL - Carnegie Hill"},{"streetAddress":"865 Madison Avenue","city":"New York","state":"NY","zoneNumber":7,"zipCode":"10021","meetingName":"CENTRAL - Central I"},{"streetAddress":"1296 Lexington Avenue","city":"New York","state":"NY","zoneNumber":7,"zipCode":"10128","meetingName":"CHAPTER FIVE - Chapter Five     (:I)"},{"streetAddress":"351 East 74th Street","city":"New York","state":"NY","zoneNumber":7,"zipCode":"10021","meetingName":"ELEVENTH STEP AT JAN HUS - Eleventh Step At Jan Hus"},{"streetAddress":"1157 Lexington Avenue","city":"New York","state":"NY","zoneNumber":7,"zipCode":"10028","meetingName":"FEARLESS - "},{"streetAddress":"351 East 74th Street","city":"New York","state":"NY","zoneNumber":7,"zipCode":"10021","meetingName":"FRIDAY CENTRAL - "},{"streetAddress":"351 East 74th Street","city":"New York","state":"NY","zoneNumber":7,"zipCode":"10021","meetingName":"FRIDAY NIGHT GAY MEN &amp; WOMEN - Friday Night Gay Men &amp; Women"},{"streetAddress":"65 East 89th Street","city":"New York","state":"NY","zoneNumber":7,"zipCode":"10128","meetingName":"FRIDAY NIGHT MEN&apos;S STEP - Friday Night Men&apos;s Step"},{"streetAddress":"65 East 89th Street - Rectory basement","city":"New York","state":"NY","zoneNumber":7,"zipCode":"","meetingName":"HUMANISTS TOO - "},{"streetAddress":"351 East 74th Street","city":"New York","state":"NY","zoneNumber":7,"zipCode":"10021","meetingName":"I&apos;M ALL IN - "},{"streetAddress":"135 East 96th Street","city":"New York","state":"NY","zoneNumber":7,"zipCode":"10128","meetingName":"INTO ACTION MANHATTAN - Into Action Manhattan"},{"streetAddress":"351 East 74th Street","city":"New York","state":"NY","zoneNumber":7,"zipCode":"10021","meetingName":"KITCHEN TABLE MEETING - "},{"streetAddress":"2 East 90th Street","city":"New York","state":"NY","zoneNumber":7,"zipCode":"10128","meetingName":"LENOX HILL - Lenox Hill"},{"streetAddress":"1157 Lexington Avenue","city":"New York","state":"NY","zoneNumber":7,"zipCode":"10028","meetingName":"LEX 80 STEP - "},{"streetAddress":"420 East 76th Street","city":"New York","state":"NY","zoneNumber":7,"zipCode":"10021","meetingName":"LIVE AND LET LIVE - Live And Let Live"},{"streetAddress":"351 East 74th Street","city":"New York","state":"NY","zoneNumber":7,"zipCode":"10021","meetingName":"MADISON 73 - Madison 73"},{"streetAddress":"351 East 74th Street","city":"New York","state":"NY","zoneNumber":7,"zipCode":"10021","meetingName":"MEDITATION (EXPECT MIRACLES) - Meditation (Expect Miracles)"},{"streetAddress":"1285 Madison Avenue","city":"New York","state":"NY","zoneNumber":7,"zipCode":"","meetingName":"MEN&apos;S NYC BIG BOOK STEP STUDY - "},{"streetAddress":"48 East 84th Street","city":"New York","state":"NY","zoneNumber":7,"zipCode":"10028","meetingName":"METROPOLITAN - Metropolitan"},{"streetAddress":"408 East 82nd Street","city":"New York","state":"NY","zoneNumber":7,"zipCode":"10028","meetingName":"MONDAY EAST TOPIC - Monday East Topic"},{"streetAddress":"351 East 74th Street","city":"New York","state":"NY","zoneNumber":7,"zipCode":"10021","meetingName":"MONDAY WOMEN - "},{"streetAddress":"351 East 74th Street","city":"New York","state":"NY","zoneNumber":7,"zipCode":"10021","meetingName":"MORNING REFLECTIONS - "},{"streetAddress":"125 East 85th Street","city":"New York","state":"NY","zoneNumber":7,"zipCode":"10028","meetingName":"NEW CHOICES - New Choices"},{"streetAddress":"351 East 74th Street","city":"New York","state":"NY","zoneNumber":7,"zipCode":"10021","meetingName":"OPEN BOOK - "},{"streetAddress":"351 East 74th Street","city":"New York","state":"NY","zoneNumber":7,"zipCode":"10021","meetingName":"OUR PRIMARY PURPOSE - "},{"streetAddress":"865 Madison Avenue","city":"New York","state":"NY","zoneNumber":7,"zipCode":"10021","meetingName":"PARK BENCH   (:II) - "},{"streetAddress":"62 East 92nd Street","city":"New York","state":"NY","zoneNumber":7,"zipCode":"10128","meetingName":"PARK MADISON - Park Madison"},{"streetAddress":"351 East 74th Street","city":"New York","state":"NY","zoneNumber":7,"zipCode":"10021","meetingName":"PERSEVERANCE - Perseverance"},{"streetAddress":"420 East 87th Street","city":"New York","state":"NY","zoneNumber":7,"zipCode":"10128","meetingName":"RECOVERY ROOM - Recovery Room"},{"streetAddress":"593 Park Avenue","city":"New York","state":"NY","zoneNumber":7,"zipCode":"10128","meetingName":"RENEWAL EAST - "},{"streetAddress":"65 East 89th Street","city":"New York","state":"NY","zoneNumber":7,"zipCode":"10128","meetingName":"RENEWAL NORTH - "},{"streetAddress":"865 Madison Avenue","city":"New York","state":"NY","zoneNumber":7,"zipCode":"10021","meetingName":"RHINELANDER - Rhinelander"},{"streetAddress":"Church of the Good Shepard","city":"New York","state":"NY","zoneNumber":7,"zipCode":"","meetingName":"ROOSEVELT ISLAND SERENITY - "},{"streetAddress":"413 East 79th Street","city":"New York","state":"NY","zoneNumber":7,"zipCode":"10021","meetingName":"SEVENTY-NINTH STREET WORKSHOP - Seventy-Ninth Street Workshop    (:I)"},{"streetAddress":"351 East 74th Street","city":"New York","state":"NY","zoneNumber":7,"zipCode":"10021","meetingName":"SOBER WOMEN - Sober Women"},{"streetAddress":"310 East 67th Street","city":"New York","state":"NY","zoneNumber":7,"zipCode":"10065","meetingName":"STEP BY STEP - Step By Step"},{"streetAddress":"331 E 70th St","city":"New York","state":"NY","zoneNumber":7,"zipCode":"10021","meetingName":"SUNDAY ON 70TH - Sunday On 70th"},{"streetAddress":"411 East 68th Street","city":"New York","state":"NY","zoneNumber":7,"zipCode":"10021","meetingName":"SUTTON - Sutton"},{"streetAddress":"2 East 90th Street","city":"New York","state":"NY","zoneNumber":7,"zipCode":"10128","meetingName":"THREE TWELVES - Three Twelves"},{"streetAddress":"341 East 87th Street","city":"New York","state":"NY","zoneNumber":7,"zipCode":"10128","meetingName":"TRINITY - Trinity"},{"streetAddress":"351 East 74th Street","city":"New York","state":"NY","zoneNumber":7,"zipCode":"10021","meetingName":"WE HUMANISTS - We Humanists"},{"streetAddress":"351 East 74th Street","city":"New York","state":"NY","zoneNumber":7,"zipCode":"10021","meetingName":"WEDNESDAY EAST ON THURSDAY - Wednesday East"},{"streetAddress":"351 East 74th Street","city":"New York","state":"NY","zoneNumber":7,"zipCode":"10021","meetingName":"YORKVILLE-BUTTERFIELD - Yorkville"},{"streetAddress":"109 West 129th Street","city":"New York","state":"NY","zoneNumber":8,"zipCode":"10027","meetingName":"A CHANCE TO LIVE AGAIN - A Chance To Live Again"},{"streetAddress":"240 West 145th Street","city":"New York","state":"NY","zoneNumber":8,"zipCode":"10039","meetingName":"AA IT WORKS  II - AA It Works II"},{"streetAddress":"469 West 142nd Street","city":"New York","state":"NY","zoneNumber":8,"zipCode":"10031","meetingName":"ATTITUDE ADJUSTMENT - Attitude Adjustment"},{"streetAddress":"204 West 134th Street","city":"New York","state":"NY","zoneNumber":8,"zipCode":"10030","meetingName":"CONVENT - "},{"streetAddress":"2044 Adam Clayton Powell Blvd.","city":"New York","state":"NY","zoneNumber":8,"zipCode":"10027","meetingName":"FELLOWSHIP AT NOON - Fellowship At Noon"},{"streetAddress":"469 West 142nd Street","city":"New York","state":"NY","zoneNumber":8,"zipCode":"10031","meetingName":"GRUPO TRASMITELO - "},{"streetAddress":"521 W 126th St","city":"New York","state":"NY","zoneNumber":8,"zipCode":"10027","meetingName":"HARLEM HUMANISTS - "},{"streetAddress":"109 West 129th Street","city":"New York","state":"NY","zoneNumber":8,"zipCode":"10027","meetingName":"K.I.S.S. - Keep It Simple (Kiss)"},{"streetAddress":"469 West 142nd Street","city":"New York","state":"NY","zoneNumber":8,"zipCode":"10031","meetingName":"LEARNING TO LIVE SOBER - Learning To Live Sober"},{"streetAddress":"2044 Seventh Avenue","city":"New York","state":"NY","zoneNumber":8,"zipCode":"","meetingName":"LIVING CLEAN AND SOBER ON 121st STREET - Living Clean And Sober On 121st Street"},{"streetAddress":"127 West 127th Street","city":"New York","state":"NY","zoneNumber":8,"zipCode":"10027","meetingName":"MEDITATION COMES TO HARLEM - Meditation Comes To Harlem"},{"streetAddress":"310 West 139th Street","city":"New York","state":"NY","zoneNumber":8,"zipCode":"10037","meetingName":"MID-HARLEM - Mid-Harlem"},{"streetAddress":"409 West 141st Street","city":"New York","state":"NY","zoneNumber":8,"zipCode":"10031","meetingName":"MONDAY NIGHT CHALLENGE - Monday Night Challenge"},{"streetAddress":"91 Claremont Avenue","city":"New York","state":"NY","zoneNumber":8,"zipCode":"10027","meetingName":"PRIMARY PURPOSE - Primary Purpose"},{"streetAddress":"1727 Amsterdam Avenue","city":"New York","state":"NY","zoneNumber":8,"zipCode":"10031","meetingName":"PROMISES TWO FOR ONE - Promises Two For One"},{"streetAddress":"469 West 142nd Street","city":"New York","state":"NY","zoneNumber":8,"zipCode":"10037","meetingName":"REALITY CHECK - Reality Check"},{"streetAddress":"91 Claremont Avenue","city":"New York","state":"NY","zoneNumber":8,"zipCode":"10027","meetingName":"RIVERSIDE - Riverside"},{"streetAddress":"219 West 132nd Street","city":"New York","state":"NY","zoneNumber":8,"zipCode":"10027","meetingName":"RIVERTON - Riverton"},{"streetAddress":"211 West 129th Street","city":"New York","state":"NY","zoneNumber":8,"zipCode":"10027","meetingName":"SALEM - Salem"},{"streetAddress":"425 West 144th Street","city":"New York","state":"NY","zoneNumber":8,"zipCode":"10031","meetingName":"SOBER ADULT MEN - Sober Adult Men"},{"streetAddress":"204 West 134th Street","city":"New York","state":"NY","zoneNumber":8,"zipCode":"10030","meetingName":"ST. NICHOLAS - St. Nicholas"},{"streetAddress":"506 Lenox Avenue","city":"New York","state":"NY","zoneNumber":8,"zipCode":"10037","meetingName":"STEPS 3 and 11 - Steps Three-Eleven"},{"streetAddress":"1727 Amsterdam Avenue","city":"New York","state":"NY","zoneNumber":8,"zipCode":"10031","meetingName":"SUGAR HILL - "},{"streetAddress":"1854 Amsterdam Avenue","city":"New York","state":"NY","zoneNumber":8,"zipCode":"10031","meetingName":"TUESDAY BIG BOOK STUDY - Tuesday Big Book Study"},{"streetAddress":"469 West 142nd Street","city":"New York","state":"NY","zoneNumber":8,"zipCode":"10031","meetingName":"UPTOWN BIG BOOK WORKSHOP - "},{"streetAddress":"58-66 West 135th Street","city":"New York","state":"NY","zoneNumber":8,"zipCode":"10037","meetingName":"YOU MAY CARE AFTER - You May Care After"},{"streetAddress":"35 East 125 Street","city":"New York","state":"NY","zoneNumber":9,"zipCode":"10035","meetingName":"125 - TWO FOR ONE - "},{"streetAddress":"223 East 117th Street","city":"New York","state":"NY","zoneNumber":9,"zipCode":"10035","meetingName":"EAST HARLEM - East Harlem"},{"streetAddress":"2126 2nd Avenue","city":"New York","state":"NY","zoneNumber":9,"zipCode":"10029","meetingName":"GRUPO NUEVA VIDA - Grupo Nueva Vida"},{"streetAddress":"22 East 119th Street","city":"New York","state":"NY","zoneNumber":9,"zipCode":"10035","meetingName":"HARLEM 1 PM RECOVERY - Harlem 1 PM Recovery"},{"streetAddress":"701 West 168th Street @ Fort Washington Avenue","city":"New York","state":"NY","zoneNumber":10,"zipCode":"10032","meetingName":"A NEW WAY OF LIVING - A New Way Of Living"},{"streetAddress":"715 West 179th Street","city":"New York","state":"NY","zoneNumber":10,"zipCode":"10033","meetingName":"BRIDGE TO SOBRIETY (:I) - Bridge To Sobriety"},{"streetAddress":"715 West 179th Street","city":"New York","state":"NY","zoneNumber":10,"zipCode":"10040","meetingName":"BRIDGE TO SOBRIETY (:II) - "},{"streetAddress":"431 West 204th Street","city":"New York","state":"NY","zoneNumber":10,"zipCode":"10034","meetingName":"DYCKMAN - Dyckman"},{"streetAddress":"550 West 155th Street","city":"New York","state":"NY","zoneNumber":10,"zipCode":"10032","meetingName":"FOUND-A-WAY - Found-A-Way"},{"streetAddress":"557 West 156th Street","city":"New York","state":"NY","zoneNumber":10,"zipCode":"","meetingName":"GRUPO DESPERTAR - Grupo Despertar"},{"streetAddress":"35 Thayer Street","city":"New York","state":"NY","zoneNumber":10,"zipCode":"10040","meetingName":"GRUPO LA FLAMA PANAMERICANA - Grupo La Flama Panamericana"},{"streetAddress":"715 West 179th Street","city":"New York","state":"NY","zoneNumber":10,"zipCode":"","meetingName":"GRUPO LIBERTAD - Grupo Libertad"},{"streetAddress":"502 West165th Street","city":"New York","state":"NY","zoneNumber":10,"zipCode":"10032","meetingName":"GRUPO RECUPERACION - Grupo Recuperacion"},{"streetAddress":"91 Arden Street","city":"New York","state":"NY","zoneNumber":10,"zipCode":"10034","meetingName":"GRUPO UN NUEVO AMANECER - Grupo Un Nuevo Amanecer"},{"streetAddress":"20 Cumming Street","city":"New York","state":"NY","zoneNumber":10,"zipCode":"10034","meetingName":"HAPPY DESTINY - "},{"streetAddress":"84 Vermilyea Avenue","city":"New York","state":"NY","zoneNumber":10,"zipCode":"10034","meetingName":"INWOOD FORT TRYON - Inwood-Ft. Tryon"},{"streetAddress":"620 Isham Street","city":"New York","state":"NY","zoneNumber":10,"zipCode":"10034","meetingName":"ISHAM PARK - Isham Park"},{"streetAddress":"2005 Amsterdam Avenue","city":"New York","state":"NY","zoneNumber":10,"zipCode":"10032","meetingName":"PROGRESS NOT PERFECTION - "},{"streetAddress":"178 Bennett Avenue","city":"New York","state":"NY","zoneNumber":10,"zipCode":"10040","meetingName":"THE MEN UPSTAIRS - "},{"streetAddress":"178 Bennett Avenue","city":"New York","state":"NY","zoneNumber":10,"zipCode":"10040","meetingName":"THE MISSING LINK - Missing Link"},{"streetAddress":"91 Arden Street","city":"New York","state":"NY","zoneNumber":10,"zipCode":"10034","meetingName":"UPPER MANHATTAN - Upper Manhattan"},{"streetAddress":"20 Cummings Street","city":"New York","state":"NY","zoneNumber":10,"zipCode":"10034","meetingName":"UPTOWN SATURDAY NIGHT - Uptown Saturday Night"},{"streetAddress":"715 West 179th Street","city":"New York","state":"NY","zoneNumber":10,"zipCode":"10033","meetingName":"WASHINGTON HEIGHTS                  (:I) - Washington Heights    (:I)"},{"streetAddress":"189th Street &amp; Bennett Avenue","city":"New York","state":"NY","zoneNumber":10,"zipCode":"10040","meetingName":"WASHINGTON HEIGHTS                 (:II) - Washington Heights    (:II)"},{"streetAddress":"178 Bennett Avenue","city":"New York","state":"NY","zoneNumber":10,"zipCode":"10040","meetingName":"WHAT WE ARE LIKE NOW - "},{"streetAddress":"178 Bennett Avenue","city":"New York","state":"NY","zoneNumber":10,"zipCode":"10040","meetingName":"WOMEN&apos;S NITE - Women&apos;s Nite"}]